NORAD_CAT_ID,OBJECT_NAME,OBJECT_TYPE,EPOCH,MEAN_MOTION,ECCENTRICITY,INCLINATION,RA_OF_ASC_NODE,ARG_OF_PERICENTER,MEAN_ANOMALY,BSTAR,MEAN_MOTION_DOT,MEAN_MOTION_DDOT,TLE_LINE0,TLE_LINE1,TLE_LINE2,SEMIMAJOR_AXIS,PERIOD,APOGEE,PERIGEE,DECAYED
50203.0,STARLINK-3257,PAYLOAD,2022-12-07 19:09:38,15.08839838,0.0003306,53.2153,171.7881,45.2479,314.8781,0.00026067,3.863e-05,0.0,0 STARLINK-3257,1 50203U 21125AZ  22341.79836450  .00003863  00000-0  26067-3 0  9999,2 50203  53.2153 171.7881 0003306  45.2479 314.8781 15.08839838 54326,6917.880999999999,95.438,542.033,537.4590000000002,0.0
50203.0,STARLINK-3257,PAYLOAD,2022-12-08 12:38:53,15.08838936,0.0003109,53.216,168.518,37.2592,322.8616,0.00013663,1.887e-05,0.0,0 STARLINK-3257,1 50203U 21125AZ  22342.52700308  .00001887  00000-0  13663-3 0  9995,2 50203  53.2160 168.5180 0003109  37.2592 322.8616 15.08838936 57572,6917.884,95.438,541.899,537.5980000000002,0.0
50203.0,STARLINK-3257,PAYLOAD,2022-12-08 19:00:25,15.08847479,0.0002999,53.2161,167.3297,36.8042,323.3155,0.00024618,3.633e-05,0.0,0 STARLINK-3257,1 50203U 21125AZ  22342.79195724  .00003633  00000-0  24618-3 0  9997,2 50203  53.2161 167.3297 0002999  36.8042 323.3155 15.08847479 57611,6917.858,95.437,541.797,537.648,0.0
50203.0,STARLINK-3257,PAYLOAD,2022-12-08 23:46:34,15.08839177,0.0003281,53.214,166.4372,40.5277,319.5959,0.00010601,1.399e-05,0.0,0 STARLINK-3257,1 50203U 21125AZ  22342.99068145  .00001399  00000-0  10601-3 0  9999,2 50203  53.2140 166.4372 0003281  40.5277 319.5959 15.08839177 54509,6917.8830000000025,95.438,542.018,537.4780000000002,0.0
50203.0,STARLINK-3257,PAYLOAD,2022-12-10 12:20:28,15.08815574,0.0002384,53.2149,159.5962,32.9168,327.1972,0.0010235,0.00016028,0.0,0 STARLINK-3257,1 50203U 21125AZ  22344.51421313  .00016028  00000-0  10235-2 0  9996,2 50203  53.2149 159.5962 0002384  32.9168 327.1972 15.08815574 54733,6917.955,95.439,541.469,538.1709999999998,0.0
50203.0,STARLINK-3257,PAYLOAD,2022-12-10 18:41:59,15.08848453,0.0003386,53.2153,158.4065,50.3199,309.8092,0.00011119,1.482e-05,0.0,0 STARLINK-3257,1 50203U 21125AZ  22344.77915633  .00001482  00000-0  11119-3 0  9998,2 50203  53.2153 158.4065 0003386  50.3199 309.8092 15.08848453 57916,6917.855,95.437,542.062,537.377,0.0
50203.0,STARLINK-3257,PAYLOAD,2022-12-10 21:52:45,15.08850363,0.0003386,53.2154,157.8114,50.2673,309.8617,0.00013282,1.826e-05,0.0,0 STARLINK-3257,1 50203U 21125AZ  22344.91163503  .00001826  00000-0  13282-3 0  9990,2 50203  53.2154 157.8114 0003386  50.2673 309.8617 15.08850363 54790,6917.849,95.437,542.056,537.371,0.0
50203.0,STARLINK-3257,PAYLOAD,2022-12-11 12:11:13,15.08846608,0.0003245,53.2162,155.1336,55.0229,305.1068,0.00016237,2.297e-05,0.0,0 STARLINK-3257,1 50203U 21125AZ  22345.50779488  .00002297  00000-0  16237-3 0  9997,2 50203  53.2162 155.1336 0003245  55.0229 305.1068 15.08846608 58026,6917.86,95.437,541.97,537.48,0.0
50203.0,STARLINK-3257,PAYLOAD,2022-12-11 20:08:09,15.08840335,0.00033,53.2155,153.6471,50.1131,310.0151,2.8442e-05,1.64e-06,0.0,0 STARLINK-3257,1 50203U 21125AZ  22345.83899768  .00000164  00000-0  28442-4 0  9990,2 50203  53.2155 153.6471 0003300  50.1131 310.0151 15.08840335 54936,6917.879,95.438,542.0269999999998,537.461,0.0
50203.0,STARLINK-3257,PAYLOAD,2022-12-12 12:02:00,15.08843713,0.0003288,53.2169,150.6743,52.3118,307.8172,3.3973e-05,2.52e-06,0.0,0 STARLINK-3257,1 50203U 21125AZ  22346.50139806  .00000252  00000-0  33973-4 0  9998,2 50203  53.2169 150.6743 0003288  52.3118 307.8172 15.08843713 58174,6917.869000000002,95.437,542.009,537.4590000000002,0.0
50203.0,STARLINK-3257,PAYLOAD,2022-12-12 19:58:56,15.08847324,0.0003313,53.2168,149.1875,52.3928,307.7365,5.7698e-05,6.3e-06,0.0,0 STARLINK-3257,1 50203U 21125AZ  22346.83259401  .00000630  00000-0  57698-4 0  9998,2 50203  53.2168 149.1875 0003313  52.3928 307.7365 15.08847324 58221,6917.858,95.437,542.015,537.431,0.0
50203.0,STARLINK-3257,PAYLOAD,2022-12-12 21:34:19,15.0884777,0.0003317,53.2167,148.8901,52.2156,307.9137,5.806100000000001e-05,6.36e-06,0.0,0 STARLINK-3257,1 50203U 21125AZ  22346.89883331  .00000636  00000-0  58061-4 0  9990,2 50203  53.2167 148.8901 0003317  52.2156 307.9137 15.08847770 55098,6917.857,95.437,542.016,537.427,0.0
50203.0,STARLINK-3257,PAYLOAD,2022-12-13 10:17:24,15.08840882,0.0003306,53.217,146.5115,53.3123,306.8172,4.3332e-05,4.01e-06,0.0,0 STARLINK-3257,1 50203U 21125AZ  22347.42875736  .00000401  00000-0  43332-4 0  9995,2 50203  53.2170 146.5115 0003306  53.3123 306.8172 15.08840882 55171,6917.878000000002,95.437,542.03,537.456,0.0
50203.0,STARLINK-3257,PAYLOAD,2022-12-13 11:52:47,15.08836233,0.0003298,53.217,146.2138,53.7519,306.3777,7.0869e-05,8.39e-06,0.0,0 STARLINK-3257,1 50203U 21125AZ  22347.49499921  .00000839  00000-0  70869-4 0  9990,2 50203  53.2170 146.2138 0003298  53.7519 306.3777 15.08836233 58327,6917.892,95.438,542.038,537.475,0.0
50203.0,STARLINK-3257,PAYLOAD,2022-12-13 19:49:43,15.08837188,0.000332,53.2169,144.7269,54.1136,306.0164,6.9621e-05,8.19e-06,0.0,0 STARLINK-3257,1 50203U 21125AZ  22347.82619930  .00000819  00000-0  69621-4 0  9993,2 50203  53.2169 144.7269 0003320  54.1136 306.0164 15.08837188 58371,6917.889,95.438,542.0509999999998,537.457,0.0
50203.0,STARLINK-3257,PAYLOAD,2022-12-14 10:08:11,15.08845064,0.0003333,53.2167,142.0502,54.8495,305.2809,9.4423e-05,1.215e-05,0.0,0 STARLINK-3257,1 50203U 21125AZ  22348.42235405  .00001215  00000-0  94423-4 0  9990,2 50203  53.2167 142.0502 0003333  54.8495 305.2809 15.08845064 58468,6917.865,95.437,542.036,537.424,0.0
50203.0,STARLINK-3257,PAYLOAD,2022-12-14 16:29:43,15.08851508,0.0003318,53.2167,140.861,55.0135,305.1168,9.4925e-05,1.223e-05,0.0,0 STARLINK-3257,1 50203U 21125AZ  22348.68730861  .00001223  00000-0  94925-4 0  9990,2 50203  53.2167 140.8610 0003318  55.0135 305.1168 15.08851508 58503,6917.845,95.437,542.006,537.415,0.0
50203.0,STARLINK-3257,PAYLOAD,2022-12-15 03:37:25,15.08854503,0.0003478999999999,53.2168,138.7803,52.0998,308.0308,-0.00019853,-3.449e-05,0.0,0 STARLINK-3257,1 50203U 21125AZ  22349.15099373 -.00003449  00000-0 -19853-3 0  9999,2 50203  53.2168 138.7803 0003479  52.0998 308.0308 15.08854503 55431,6917.8359999999975,95.437,542.1080000000002,537.294,0.0
50203.0,STARLINK-3257,PAYLOAD,2022-12-15 09:58:58,15.08846876,0.0003228,53.2167,137.5908,53.0085,307.1202,-0.00017402,-3.058e-05,0.0,0 STARLINK-3257,1 50203U 21125AZ  22349.41595634 -.00003058  00000-0 -17402-3 0  9993,2 50203  53.2167 137.5908 0003228  53.0085 307.1202 15.08846876 58613,6917.859,95.437,541.957,537.491,0.0
50203.0,STARLINK-3257,PAYLOAD,2022-12-15 14:45:09,15.08821715,0.0003276,53.2172,136.6988,52.1168,308.012,-7.2572e-05,-1.443e-05,0.0,0 STARLINK-3257,1 50203U 21125AZ  22349.61469482 -.00001443  00000-0 -72572-4 0  9992,2 50203  53.2172 136.6988 0003276  52.1168 308.0120 15.08821715 55501,6917.936,95.439,542.068,537.535,0.0
50203.0,STARLINK-3257,PAYLOAD,2022-12-15 19:31:18,15.08825993,0.0003292,53.2168,135.8064,53.6529,306.4766,-2.9182e-05,-7.53e-06,0.0,0 STARLINK-3257,1 50203U 21125AZ  22349.81341325 -.00000753  00000-0 -29182-4 0  9991,2 50203  53.2168 135.8064 0003292  53.6529 306.4766 15.08825993 58678,6917.9230000000025,95.438,542.066,537.511,0.0
50203.0,STARLINK-3257,PAYLOAD,2022-12-15 21:06:42,15.08826863,0.0003296,53.2168,135.5091,53.5002,306.6293,-1.7957e-05,-5.74e-06,0.0,0 STARLINK-3257,1 50203U 21125AZ  22349.87965304 -.00000574  00000-0 -17957-4 0  9994,2 50203  53.2168 135.5091 0003296  53.5002 306.6293 15.08826863 55541,6917.920999999999,95.438,542.066,537.505,0.0
50203.0,STARLINK-3257,PAYLOAD,2022-12-16 13:00:33,15.08837565,0.00034,53.2168,132.5356,54.9735,305.1576,2.0828e-05,4.3e-07,0.0,0 STARLINK-3257,1 50203U 21125AZ  22350.54204976  .00000043  00000-0  20828-4 0  9991,2 50203  53.2168 132.5356 0003400  54.9735 305.1576 15.08837565 55647,6917.888000000001,95.438,542.105,537.401,0.0
50203.0,STARLINK-3257,PAYLOAD,2022-12-16 19:22:05,15.08840526,0.0003425,53.2159,131.346,54.0003,306.1307,0.00016808,2.387e-05,0.0,0 STARLINK-3257,1 50203U 21125AZ  22350.80700957  .00002387  00000-0  16808-3 0  9995,2 50203  53.2159 131.3460 0003425  54.0003 306.1307 15.08840526 58823,6917.879,95.438,542.113,537.374,0.0
50203.0,STARLINK-3257,PAYLOAD,2022-12-16 20:57:28,15.08840644,0.0003478999999999,53.2157,131.0488,53.6923,306.439,0.00033331,5.02e-05,0.0,0 STARLINK-3257,1 50203U 21125AZ  22350.87325166  .00005020  00000-0  33331-3 0  9994,2 50203  53.2157 131.0488 0003479  53.6923 306.4390 15.08840644 58830,6917.878000000002,95.438,542.15,537.337,0.0
50203.0,STARLINK-3257,PAYLOAD,2022-12-17 16:02:06,15.08845804,0.0003592,53.2159,127.48,56.2286,303.9048,0.00042409,6.469e-05,0.0,0 STARLINK-3257,1 50203U 21125AZ  22351.66813438  .00006469  00000-0  42409-3 0  9990,2 50203  53.2159 127.4800 0003592  56.2286 303.9048 15.08845804 55816,6917.863,95.437,542.2130000000002,537.243,0.0
50203.0,STARLINK-3257,PAYLOAD,2022-12-17 19:12:52,15.08849536,0.0003611,53.2159,126.8852,56.4225,303.7112,0.00046005,7.043e-05,0.0,0 STARLINK-3257,1 50203U 21125AZ  22351.80061303  .00007043  00000-0  46005-3 0  9997,2 50203  53.2159 126.8852 0003611  56.4225 303.7112 15.08849536 58979,6917.851,95.437,542.214,537.2180000000002,0.0
50203.0,STARLINK-3257,PAYLOAD,2022-12-18 07:55:58,15.08835287,0.0003615,53.216,124.5062,58.3756,301.7589,-4.4855e-05,-1.003e-05,0.0,0 STARLINK-3257,1 50203U 21125AZ  22352.33053682 -.00001003  00000-0 -44855-4 0  9991,2 50203  53.2160 124.5062 0003615  58.3756 301.7589 15.08835287 59057,6917.895,95.438,542.261,537.259,0.0
50203.0,STARLINK-3257,PAYLOAD,2022-12-18 20:39:03,15.088437699999998,0.0003529,53.2144,122.1274,61.0095,299.125,0.00020387,2.958e-05,0.0,0 STARLINK-3257,1 50203U 21125AZ  22352.86045594  .00002958  00000-0  20387-3 0  9993,2 50203  53.2144 122.1274 0003529  61.0095 299.1250 15.08843770 59139,6917.869000000002,95.437,542.175,537.293,0.0
